{
  "type": "FeatureCollection",
  "features": [
    {
      "type": "Feature",
      "properties": {
        "norad_id": 35594,
        "name": "COSMOS 2251 DEB",
        "group": "cosmos-2251-debris",
        "lat": -10.827702292402373,
        "lon": 105.1270833342776,
        "alt_km": 621.7668299724337,
        "timestamp": "2025-12-11T20:41:15.477303+00:00",
        "meta_object_name": "COSMOS 2251 DEB",
        "meta_object_id": "1993-036AMM",
        "meta_epoch": "2025-12-11T07:49:43.768128",
        "meta_mean_motion": 14.87869065,
        "meta_eccentricity": 0.00302327,
        "meta_inclination": 73.8067,
        "meta_ra_of_asc_node": 109.3962,
        "meta_arg_of_pericenter": 220.7507,
        "meta_mean_anomaly": 139.1411,
        "meta_ephemeris_type": 0,
        "meta_classification_type": "U",
        "meta_norad_cat_id": 35594,
        "meta_element_set_no": 999,
        "meta_rev_at_epoch": 88164,
        "meta_bstar": 0.003372362,
        "meta_mean_motion_dot": 0.00031222,
        "meta_mean_motion_ddot": 0,
        "tle_line1": "1 35594U 93036AMM 25345.32620102  .00031222  00000+0  33724-2 0  9992",
        "tle_line2": "2 35594  73.8067 109.3962 0030232 220.7507 139.1411 14.87869065881643"
      },
      "geometry": {
        "type": "Point",
        "coordinates": [
          105.1270833342776,
          -10.827702292402373
        ]
      }
    },
    {
      "type": "Feature",
      "properties": {
        "norad_id": 35602,
        "name": "COSMOS 2251 DEB",
        "group": "cosmos-2251-debris",
        "lat": -46.52369119940843,
        "lon": 166.47713651943283,
        "alt_km": 437.0548697989834,
        "timestamp": "2025-12-11T20:41:15.477314+00:00",
        "meta_object_name": "COSMOS 2251 DEB",
        "meta_object_id": "1993-036AMV",
        "meta_epoch": "2025-12-11T13:12:57.390336",
        "meta_mean_motion": 15.35009542,
        "meta_eccentricity": 0.00900671,
        "meta_inclination": 73.994,
        "meta_ra_of_asc_node": 184.7692,
        "meta_arg_of_pericenter": 250.7895,
        "meta_mean_anomaly": 139.7524,
        "meta_ephemeris_type": 0,
        "meta_classification_type": "U",
        "meta_norad_cat_id": 35602,
        "meta_element_set_no": 999,
        "meta_rev_at_epoch": 90073,
        "meta_bstar": 0.00058363108,
        "meta_mean_motion_dot": 0.00022676,
        "meta_mean_motion_ddot": 0,
        "tle_line1": "1 35602U 93036AMV 25345.55066424  .00022676  00000+0  58363-3 0  9998",
        "tle_line2": "2 35602  73.9940 184.7692 0090067 250.7895 139.7524 15.35009542900739"
      },
      "geometry": {
        "type": "Point",
        "coordinates": [
          166.47713651943283,
          -46.52369119940843
        ]
      }
    },
    {
      "type": "Feature",
      "properties": {
        "norad_id": 35605,
        "name": "COSMOS 2251 DEB",
        "group": "cosmos-2251-debris",
        "lat": 0.0077538035437206485,
        "lon": -21.474152809555903,
        "alt_km": 467.7617710742179,
        "timestamp": "2025-12-11T20:41:15.477324+00:00",
        "meta_object_name": "COSMOS 2251 DEB",
        "meta_object_id": "1993-036AMY",
        "meta_epoch": "2025-12-08T17:29:07.135584",
        "meta_mean_motion": 15.31836492,
        "meta_eccentricity": 0.00282066,
        "meta_inclination": 73.8723,
        "meta_ra_of_asc_node": 345.2823,
        "meta_arg_of_pericenter": 280.9051,
        "meta_mean_anomaly": 78.8978,
        "meta_ephemeris_type": 0,
        "meta_classification_type": "U",
        "meta_norad_cat_id": 35605,
        "meta_element_set_no": 999,
        "meta_rev_at_epoch": 65910,
        "meta_bstar": 0.0070125726,
        "meta_mean_motion_dot": 0.002247,
        "meta_mean_motion_ddot": 0,
        "tle_line1": "1 35605U 93036AMY 25342.72855481  .00224700  00000+0  70126-2 0  9998",
        "tle_line2": "2 35605  73.8723 345.2823 0028206 280.9051  78.8978 15.31836492659101"
      },
      "geometry": {
        "type": "Point",
        "coordinates": [
          -21.474152809555903,
          0.0077538035437206485
        ]
      }
    },
    {
      "type": "Feature",
      "properties": {
        "norad_id": 35606,
        "name": "COSMOS 2251 DEB",
        "group": "cosmos-2251-debris",
        "lat": -63.521660496170476,
        "lon": -23.477700554290845,
        "alt_km": 998.6986197141023,
        "timestamp": "2025-12-11T20:41:15.477334+00:00",
        "meta_object_name": "COSMOS 2251 DEB",
        "meta_object_id": "1993-036AMZ",
        "meta_epoch": "2025-12-09T08:10:26.094720",
        "meta_mean_motion": 13.41205491,
        "meta_eccentricity": 0.04577322,
        "meta_inclination": 73.8107,
        "meta_ra_of_asc_node": 16.2149,
        "meta_arg_of_pericenter": 222.4362,
        "meta_mean_anomaly": 134.0496,
        "meta_ephemeris_type": 0,
        "meta_classification_type": "U",
        "meta_norad_cat_id": 35606,
        "meta_element_set_no": 999,
        "meta_rev_at_epoch": 60994,
        "meta_bstar": 0.0014727579,
        "meta_mean_motion_dot": 1.492e-05,
        "meta_mean_motion_ddot": 0,
        "tle_line1": "1 35606U 93036AMZ 25343.34057980  .00001492  00000+0  14728-2 0  9993",
        "tle_line2": "2 35606  73.8107  16.2149 0457732 222.4362 134.0496 13.41205491609945"
      },
      "geometry": {
        "type": "Point",
        "coordinates": [
          -23.477700554290845,
          -63.521660496170476
        ]
      }
    },
    {
      "type": "Feature",
      "properties": {
        "norad_id": 35611,
        "name": "COSMOS 2251 DEB",
        "group": "cosmos-2251-debris",
        "lat": -4.531176788830519,
        "lon": 179.7112310713945,
        "alt_km": 658.3114225796662,
        "timestamp": "2025-12-11T20:41:15.477344+00:00",
        "meta_object_name": "COSMOS 2251 DEB",
        "meta_object_id": "1993-036ANE",
        "meta_epoch": "2025-12-10T21:53:07.871424",
        "meta_mean_motion": 14.72760794,
        "meta_eccentricity": 0.0021652,
        "meta_inclination": 74.0199,
        "meta_ra_of_asc_node": 182.8637,
        "meta_arg_of_pericenter": 256.2184,
        "meta_mean_anomaly": 103.6579,
        "meta_ephemeris_type": 0,
        "meta_classification_type": "U",
        "meta_norad_cat_id": 35611,
        "meta_element_set_no": 999,
        "meta_rev_at_epoch": 87263,
        "meta_bstar": 0.0032758,
        "meta_mean_motion_dot": 0.00021038,
        "meta_mean_motion_ddot": 0,
        "tle_line1": "1 35611U 93036ANE 25344.91189666  .00021038  00000+0  32758-2 0  9991",
        "tle_line2": "2 35611  74.0199 182.8637 0021652 256.2184 103.6579 14.72760794872631"
      },
      "geometry": {
        "type": "Point",
        "coordinates": [
          179.7112310713945,
          -4.531176788830519
        ]
      }
    },
    {
      "type": "Feature",
      "properties": {
        "norad_id": 35614,
        "name": "COSMOS 2251 DEB",
        "group": "cosmos-2251-debris",
        "lat": 44.931693831657455,
        "lon": 132.48481608406166,
        "alt_km": 632.7548512548983,
        "timestamp": "2025-12-11T20:41:15.477353+00:00",
        "meta_object_name": "COSMOS 2251 DEB",
        "meta_object_id": "1993-036ANH",
        "meta_epoch": "2025-12-11T15:10:18.622272",
        "meta_mean_motion": 14.66997586,
        "meta_eccentricity": 0.00758361,
        "meta_inclination": 73.9591,
        "meta_ra_of_asc_node": 329.6101,
        "meta_arg_of_pericenter": 184.3754,
        "meta_mean_anomaly": 175.6763,
        "meta_ephemeris_type": 0,
        "meta_classification_type": "U",
        "meta_norad_cat_id": 35614,
        "meta_element_set_no": 999,
        "meta_rev_at_epoch": 87713,
        "meta_bstar": 0.001259568,
        "meta_mean_motion_dot": 7.344e-05,
        "meta_mean_motion_ddot": 0,
        "tle_line1": "1 35614U 93036ANH 25345.63215998  .00007344  00000+0  12596-2 0  9994",
        "tle_line2": "2 35614  73.9591 329.6101 0075836 184.3754 175.6763 14.66997586877130"
      },
      "geometry": {
        "type": "Point",
        "coordinates": [
          132.48481608406166,
          44.931693831657455
        ]
      }
    },
    {
      "type": "Feature",
      "properties": {
        "norad_id": 35645,
        "name": "COSMOS 2251 DEB",
        "group": "cosmos-2251-debris",
        "lat": -70.60714355156482,
        "lon": 34.58514552855279,
        "alt_km": 705.9174201799842,
        "timestamp": "2025-12-11T20:41:15.477363+00:00",
        "meta_object_name": "COSMOS 2251 DEB",
        "meta_object_id": "1993-036ANL",
        "meta_epoch": "2025-12-10T23:27:31.601376",
        "meta_mean_motion": 14.45538562,
        "meta_eccentricity": 0.00695586,
        "meta_inclination": 73.9638,
        "meta_ra_of_asc_node": 91.0323,
        "meta_arg_of_pericenter": 249.0012,
        "meta_mean_anomaly": 110.3695,
        "meta_ephemeris_type": 0,
        "meta_classification_type": "U",
        "meta_norad_cat_id": 35645,
        "meta_element_set_no": 999,
        "meta_rev_at_epoch": 86746,
        "meta_bstar": 0.0035659566,
        "meta_mean_motion_dot": 0.00012959,
        "meta_mean_motion_ddot": 0,
        "tle_line1": "1 35645U 93036ANL 25344.97744909  .00012959  00000+0  35660-2 0  9998",
        "tle_line2": "2 35645  73.9638  91.0323 0069558 249.0012 110.3695 14.45538562867469"
      },
      "geometry": {
        "type": "Point",
        "coordinates": [
          34.58514552855279,
          -70.60714355156482
        ]
      }
    }
  ]
}